NORAD_CAT_ID,OBJECT_NAME,OBJECT_TYPE,EPOCH,MEAN_MOTION,ECCENTRICITY,INCLINATION,RA_OF_ASC_NODE,ARG_OF_PERICENTER,MEAN_ANOMALY,BSTAR,MEAN_MOTION_DOT,MEAN_MOTION_DDOT,TLE_LINE0,TLE_LINE1,TLE_LINE2,SEMIMAJOR_AXIS,PERIOD,APOGEE,PERIGEE,DECAYED
53784.0,STARLINK-4687,PAYLOAD,2024-02-09 10:23:14,15.0884769,0.0001828,53.2173,82.5937,96.9122,263.2078,-7.3434e-05,-1.457e-05,0.0,0 STARLINK-4687,1 53784U 22111M   24040.43280805 -.00001457  00000-0 -73434-4 0  9998,2 53784  53.2173  82.5937 0001828  96.9122 263.2078 15.08847690 78261,6917.857,95.437,540.986,538.457,0.0
53784.0,STARLINK-4687,PAYLOAD,2024-02-09 11:58:37,15.08851928,0.0001776,53.217,82.2954,97.9118,262.2076,-4.9665e-05,-1.079e-05,0.0,0 STARLINK-4687,1 53784U 22111M   24040.49904419 -.00001079  00000-0 -49665-4 0  9997,2 53784  53.2170  82.2954 0001776  97.9118 262.2076 15.08851928 79089,6917.844,95.437,540.938,538.48,0.0
53784.0,STARLINK-4687,PAYLOAD,2024-02-10 02:17:06,15.08830904,0.0001936,53.2166,79.6222,104.4815,255.6392,9.1533e-05,1.169e-05,0.0,0 STARLINK-4687,1 53784U 22111M   24041.09521414  .00001169  00000-0  91533-4 0  9993,2 53784  53.2166  79.6222 0001936 104.4815 255.6392 15.08830904 78366,6917.908,95.438,541.112,538.434,0.0
53784.0,STARLINK-4687,PAYLOAD,2024-02-10 08:38:39,15.08834365,0.000185,53.2167,78.4306,108.074,252.0454,2.1578e-05,5.5e-07,0.0,0 STARLINK-4687,1 53784U 22111M   24041.36017617  .00000055  00000-0  21578-4 0  9993,2 53784  53.2167  78.4306 0001850 108.0740 252.0454 15.08834365 79219,6917.898,95.438,541.042,538.483,0.0
53784.0,STARLINK-4687,PAYLOAD,2024-02-11 08:29:25,15.08844016,0.0001917,53.2171,73.9705,103.2984,256.8222,5.1716e-05,5.35e-06,0.0,0 STARLINK-4687,1 53784U 22111M   24042.35377181  .00000535  00000-0  51716-4 0  9998,2 53784  53.2171  73.9705 0001917 103.2984 256.8222 15.08844016 78553,6917.868,95.437,541.059,538.407,0.0
53784.0,STARLINK-4687,PAYLOAD,2024-02-12 11:30:58,15.08853792,0.0001867,53.217,68.9143,98.3551,261.7653,0.00018725,2.694e-05,0.0,0 STARLINK-4687,1 53784U 22111M   24043.47984046  .00002694  00000-0  18725-3 0  9996,2 53784  53.2170  68.9143 0001867  98.3551 261.7653 15.08853792 78723,6917.838,95.437,540.995,538.412,0.0
53784.0,STARLINK-4687,PAYLOAD,2024-02-13 11:21:46,15.08839431,0.0001667,53.2175,64.4527,96.1979,263.9203,-6.9572e-06,-3.99e-06,0.0,0 STARLINK-4687,1 53784U 22111M   24044.47345707 -.00000399  00000-0 -69572-5 0  9992,2 53784  53.2175  64.4527 0001667  96.1979 263.9203 15.08839431 78878,6917.882,95.438,540.9,538.594,0.0
53784.0,STARLINK-4687,PAYLOAD,2024-02-13 17:43:19,15.08840115,0.0001664,53.2177,63.2632,92.7147,267.4035,1.4109e-05,-6.4e-07,0.0,0 STARLINK-4687,1 53784U 22111M   24044.73841716 -.00000064  00000-0  14109-4 0  9995,2 53784  53.2177  63.2632 0001664  92.7147 267.4035 15.08840115 79728,6917.88,95.438,540.896,538.594,0.0
53784.0,STARLINK-4687,PAYLOAD,2024-02-14 08:01:46,15.08849684,0.0001653,53.2172,60.5898,88.8333,271.2849,-2.0615e-05,-6.16e-06,0.0,0 STARLINK-4687,1 53784U 22111M   24045.33457145 -.00000616  00000-0 -20615-4 0  9994,2 53784  53.2172  60.5898 0001653  88.8333 271.2849 15.08849684 79005,6917.851,95.437,540.859,538.572,0.0
53784.0,STARLINK-4687,PAYLOAD,2024-02-14 17:34:06,15.08844628,0.0001711,53.2172,58.8052,86.2654,273.8534,-7.2283e-05,-1.438e-05,0.0,0 STARLINK-4687,1 53784U 22111M   24045.73201580 -.00001438  00000-0 -72283-4 0  9999,2 53784  53.2172  58.8052 0001711  86.2654 273.8534 15.08844628 79068,6917.866,95.437,540.915,538.548,0.0
53784.0,STARLINK-4687,PAYLOAD,2024-02-15 09:27:57,15.08840556,0.0001551,53.2168,55.8311,99.5711,260.5456,0.00011339,1.517e-05,0.0,0 STARLINK-4687,1 53784U 22111M   24046.39441948  .00001517  00000-0  11339-3 0  9996,2 53784  53.2168  55.8311 0001551  99.5711 260.5456 15.08840556 79973,6917.879,95.438,540.817,538.671,0.0
53784.0,STARLINK-4687,PAYLOAD,2024-02-15 17:24:53,15.088408,0.0001541,53.2175,54.3457,97.7014,262.4154,0.000116,1.559e-05,0.0,0 STARLINK-4687,1 53784U 22111M   24046.72562079  .00001559  00000-0  11600-3 0  9999,2 53784  53.2175  54.3457 0001541  97.7014 262.4154 15.08840800 79216,6917.878,95.438,540.809,538.677,0.0
53784.0,STARLINK-4687,PAYLOAD,2024-02-16 04:32:36,15.08835359,0.0001706,53.2171,52.2633,91.4803,268.6385,7.7227e-05,9.41e-06,0.0,0 STARLINK-4687,1 53784U 22111M   24047.18930776  .00000941  00000-0  77227-4 0  9995,2 53784  53.2171  52.2633 0001706  91.4803 268.6385 15.08835359 79289,6917.895,95.438,540.94,538.579,0.0
53784.0,STARLINK-4687,PAYLOAD,2024-02-16 09:18:45,15.08843029,0.0001755,53.2173,51.3706,93.1466,266.9727,9.3532e-05,1.201e-05,0.0,0 STARLINK-4687,1 53784U 22111M   24047.38802182  .00001201  00000-0  93532-4 0  9993,2 53784  53.2173  51.3706 0001755  93.1466 266.9727 15.08843029 79318,6917.871,95.437,540.95,538.522,0.0
53784.0,STARLINK-4687,PAYLOAD,2024-02-17 04:23:22,15.08838039,0.0001818,53.2187,47.8008,104.3759,255.7435,0.00010373,1.363e-05,0.0,0 STARLINK-4687,1 53784U 22111M   24048.18290436  .00001363  00000-0  10373-3 0  9995,2 53784  53.2187  47.8008 0001818 104.3759 255.7435 15.08838039 79438,6917.886,95.438,541.009,538.494,0.0
53784.0,STARLINK-4687,PAYLOAD,2024-02-17 09:09:31,15.0884738,0.0001567,53.2169,46.9084,93.6663,266.4508,7.4854e-05,9.04e-06,0.0,0 STARLINK-4687,1 53784U 22111M   24048.38162016  .00000904  00000-0  74854-4 0  9994,2 53784  53.2169  46.9084 0001567  93.6663 266.4508 15.08847380 79469,6917.858,95.437,540.807,538.639,0.0
53784.0,STARLINK-4687,PAYLOAD,2024-02-17 17:06:28,15.08842423,0.0001688,53.2171,45.4215,95.8009,264.3176,1.6631e-05,-2.3e-07,0.0,0 STARLINK-4687,1 53784U 22111M   24048.71282430 -.00000023  00000-0  16631-4 0  9996,2 53784  53.2171  45.4215 0001688  95.8009 264.3176 15.08842423 79511,6917.873,95.437,540.906,538.57,0.0
53784.0,STARLINK-4687,PAYLOAD,2024-02-18 09:00:18,15.08850219,0.0001472,53.2166,42.4488,103.5191,256.5965,7.2851e-05,8.72e-06,0.0,0 STARLINK-4687,1 53784U 22111M   24049.37521724  .00000872  00000-0  72851-4 0  9998,2 53784  53.2166  42.4488 0001472 103.5191 256.5965 15.08850219 80427,6917.849,95.437,540.732,538.696,0.0
53784.0,STARLINK-4687,PAYLOAD,2024-02-18 16:57:15,15.08834033,0.0002114,53.217,40.9612,91.0001,269.1233,-2.167e-05,-6.33e-06,0.0,0 STARLINK-4687,1 53784U 22111M   24049.70643223 -.00000633  00000-0 -21670-4 0  9994,2 53784  53.2170  40.9612 0002114  91.0001 269.1233 15.08834033 79667,6917.899,95.438,541.226,538.301,0.0
53784.0,STARLINK-4687,PAYLOAD,2024-02-19 05:40:20,15.08836599,0.0001646,53.218,38.582,97.0646,263.0534,-6.007e-06,-3.84e-06,0.0,0 STARLINK-4687,1 53784U 22111M   24050.23635054 -.00000384  00000-0 -60070-5 0  9998,2 53784  53.2180  38.5820 0001646  97.0646 263.0534 15.08836599 80558,6917.891,95.438,540.894,538.617,0.0
53784.0,STARLINK-4687,PAYLOAD,2024-02-20 03:55:44,15.08843637,0.0001594,53.2177,34.4195,99.4213,260.6959,9.1128e-05,1.163e-05,0.0,0 STARLINK-4687,1 53784U 22111M   24051.16370446  .00001163  00000-0  91128-4 0  9993,2 53784  53.2177  34.4195 0001594  99.4213 260.6959 15.08843637 79881,6917.869,95.437,540.837,538.632,0.0
53784.0,STARLINK-4687,PAYLOAD,2024-02-20 05:31:07,15.088477,0.0001601,53.2178,34.1231,97.4169,262.7005,9.3438e-05,1.2e-05,0.0,0 STARLINK-4687,1 53784U 22111M   24051.22994261  .00001200  00000-0  93438-4 0  9995,2 53784  53.2178  34.1231 0001601  97.4169 262.7005 15.08847700 80700,6917.857,95.437,540.829,538.614,0.0
53784.0,STARLINK-4687,PAYLOAD,2024-02-21 03:46:31,15.0882571,0.0001597,53.2184,29.9612,94.6484,265.469,0.00043612,6.657e-05,0.0,0 STARLINK-4687,1 53784U 22111M   24052.15731180  .00006657  00000-0  43612-3 0  9996,2 53784  53.2184  29.9612 0001597  94.6484 265.4690 15.08825710 80038,6917.924,95.438,540.894,538.684,0.0
53784.0,STARLINK-4687,PAYLOAD,2024-02-21 05:21:53,15.08849388,0.0001587,53.2184,29.6643,98.3324,261.7848,0.00017309,2.468e-05,0.0,0 STARLINK-4687,1 53784U 22111M   24052.22354029  .00002468  00000-0  17309-3 0  9997,2 53784  53.2184  29.6643 0001587  98.3324 261.7848 15.08849388 80044,6917.852,95.437,540.815,538.619,0.0
53784.0,STARLINK-4687,PAYLOAD,2024-02-21 14:54:13,15.08841042,0.0001625,53.2184,27.8798,97.6693,262.4484,9.6927e-05,1.255e-05,0.0,0 STARLINK-4687,1 53784U 22111M   24052.62098640  .00001255  00000-0  96927-4 0  9992,2 53784  53.2184  27.8798 0001625  97.6693 262.4484 15.08841042 80918,6917.877,95.437,540.866,538.618,0.0
53784.0,STARLINK-4687,PAYLOAD,2024-02-22 03:37:18,15.08836256,0.0001766,53.2198,25.5054,111.0497,249.0684,-6.0192e-05,-1.246e-05,0.0,0 STARLINK-4687,1 53784U 22111M   24053.15091381 -.00001246  00000-0 -60192-4 0  9993,2 53784  53.2198  25.5054 0001766 111.0497 249.0684 15.08836256 80185,6917.892,95.438,540.979,538.535,0.0
53784.0,STARLINK-4687,PAYLOAD,2024-02-22 14:45:00,15.08838812,0.0001573,53.2194,23.4203,97.4466,262.6705,-5.2574e-06,-3.72e-06,0.0,0 STARLINK-4687,1 53784U 22111M   24053.61459170 -.00000372  00000-0 -52574-5 0  9993,2 53784  53.2194  23.4203 0001573  97.4466 262.6705 15.08838812 81066,6917.884,95.438,540.837,538.661,0.0
53784.0,STARLINK-4687,PAYLOAD,2024-02-23 03:28:05,15.08846643,0.0001843,53.2207,21.0434,113.2195,246.8992,5.9222e-05,6.55e-06,0.0,0 STARLINK-4687,1 53784U 22111M   24054.14450532  .00000655  00000-0  59222-4 0  9993,2 53784  53.2207  21.0434 0001843 113.2195 246.8992 15.08846643 80339,6917.86,95.437,541.0,538.45,0.0
53784.0,STARLINK-4687,PAYLOAD,2024-02-23 14:35:47,15.08851314,0.0001572,53.2196,18.9569,84.2516,275.8655,7.0657e-06,-1.76e-06,0.0,0 STARLINK-4687,1 53784U 22111M   24054.60818324 -.00000176  00000-0  70657-5 0  9996,2 53784  53.2196  18.9569 0001572  84.2516 275.8655 15.08851314 81210,6917.846,95.437,540.798,538.623,0.0
53784.0,STARLINK-4687,PAYLOAD,2024-02-24 03:18:53,15.08809574,0.0001901,53.2211,16.5766,78.5148,281.6058,0.00043161,6.582e-05,0.0,0 STARLINK-4687,1 53784U 22111M   24055.13812268  .00006582  00000-0  43161-3 0  9990,2 53784  53.2211  16.5766 0001901  78.5148 281.6058 15.08809574 80485,6917.973,95.439,541.153,538.523,0.0
